NORAD_CAT_ID,OBJECT_NAME,OBJECT_TYPE,EPOCH,MEAN_MOTION,ECCENTRICITY,INCLINATION,RA_OF_ASC_NODE,ARG_OF_PERICENTER,MEAN_ANOMALY,BSTAR,MEAN_MOTION_DOT,MEAN_MOTION_DDOT,TLE_LINE0,TLE_LINE1,TLE_LINE2,SEMIMAJOR_AXIS,PERIOD,APOGEE,PERIGEE,DECAYED
53847.0,STARLINK-4777,PAYLOAD,2023-05-14 06:23:18,15.08835391,7.64e-05,53.2151,239.8037,89.1837,270.9242,-7.2636e-05,-1.443e-05,0.0,0 STARLINK-4777,1 53847U 22114AF  23134.26618244 -.00001443  00000-0 -72636-4 0  9995,2 53847  53.2151 239.8037 0000764  89.1837 270.9242 15.08835391 36874,6917.894,95.438,540.288,539.231,0.0
53847.0,STARLINK-4777,PAYLOAD,2023-05-14 14:20:13,15.08840129,7.98e-05,53.2151,238.317,86.5614,273.5469,0.00033549,5.056e-05,0.0,0 STARLINK-4777,1 53847U 22114AF  23134.59738216  .00005056  00000-0  33549-3 0  9994,2 53847  53.2151 238.3170 0000798  86.5614 273.5469 15.08840129 37468,6917.88,95.438,540.297,539.193,0.0
53847.0,STARLINK-4777,PAYLOAD,2023-05-14 19:06:23,15.08848707,7.89e-05,53.215,237.4245,87.6727,272.4356,0.00075572,0.00011763,0.0,0 STARLINK-4777,1 53847U 22114AF  23134.79610116  .00011763  00000-0  75572-3 0  9998,2 53847  53.2150 237.4245 0000789  87.6727 272.4356 15.08848707 37493,6917.854,95.437,540.265,539.173,0.0
53847.0,STARLINK-4777,PAYLOAD,2023-05-15 12:35:38,15.08847186,8.07e-05,53.215,234.1535,92.2186,267.8899,0.00077455,0.00012063,0.0,0 STARLINK-4777,1 53847U 22114AF  23135.52474573  .00012063  00000-0  77455-3 0  9991,2 53847  53.2150 234.1535 0000807  92.2186 267.8899 15.08847186 37604,6917.858,95.437,540.282,539.165,0.0
53847.0,STARLINK-4777,PAYLOAD,2023-05-15 14:11:01,15.08845684,8.12e-05,53.215,233.8568,87.2156,272.8929,0.00098589,0.0001544,0.0,0 STARLINK-4777,1 53847U 22114AF  23135.59098620  .00015440  00000-0  98589-3 0  9996,2 53847  53.2150 233.8568 0000812  87.2156 272.8929 15.08845684 37075,6917.863,95.437,540.29,539.166,0.0
53847.0,STARLINK-4777,PAYLOAD,2023-05-15 15:46:24,15.08849701,8.01e-05,53.215,233.559,89.3884,270.72,0.00078231,0.00012188,0.0,0 STARLINK-4777,1 53847U 22114AF  23135.65722526  .00012188  00000-0  78231-3 0  9990,2 53847  53.2150 233.5590 0000801  89.3884 270.7200 15.08849701 37620,6917.851,95.437,540.27,539.162,0.0
53847.0,STARLINK-4777,PAYLOAD,2023-05-16 06:04:52,15.08834921,8.14e-05,53.2153,230.8827,87.7313,272.3772,0.00011138,1.485e-05,0.0,0 STARLINK-4777,1 53847U 22114AF  23136.25338989  .00001485  00000-0  11138-3 0  9994,2 53847  53.2153 230.8827 0000814  87.7313 272.3772 15.08834921 37179,6917.896,95.438,540.324,539.198,0.0
53847.0,STARLINK-4777,PAYLOAD,2023-05-16 12:26:25,15.08842255,7.98e-05,53.2153,229.693,85.0919,275.0164,0.00036119,5.466e-05,0.0,0 STARLINK-4777,1 53847U 22114AF  23136.51834928  .00005466  00000-0  36119-3 0  9996,2 53847  53.2153 229.6930 0000798  85.0919 275.0164 15.08842255 37752,6917.873,95.437,540.291,539.186,0.0
53847.0,STARLINK-4777,PAYLOAD,2023-05-16 17:12:34,15.08847468,8.05e-05,53.2153,228.801,81.1827,278.9257,0.00048566,7.451e-05,0.0,0 STARLINK-4777,1 53847U 22114AF  23136.71706830  .00007451  00000-0  48566-3 0  9993,2 53847  53.2153 228.8010 0000805  81.1827 278.9257 15.08847468 37246,6917.858,95.437,540.279,539.166,0.0
53847.0,STARLINK-4777,PAYLOAD,2023-05-16 23:34:07,15.08838813,8.62e-05,53.2152,227.6115,79.9126,280.1963,0.00023216,3.409e-05,0.0,0 STARLINK-4777,1 53847U 22114AF  23136.98203121  .00003409  00000-0  23216-3 0  9991,2 53847  53.2152 227.6115 0000862  79.9126 280.1963 15.08838813 37285,6917.884,95.438,540.345,539.153,0.0
53847.0,STARLINK-4777,PAYLOAD,2023-05-17 12:17:12,15.0884857,9.03e-05,53.2154,225.2325,71.5717,288.5373,0.0005009,7.695e-05,0.0,0 STARLINK-4777,1 53847U 22114AF  23137.51194900  .00007695  00000-0  50090-3 0  9996,2 53847  53.2154 225.2325 0000903  71.5717 288.5373 15.08848570 37901,6917.854,95.437,540.344,539.095,0.0
53847.0,STARLINK-4777,PAYLOAD,2023-05-18 12:07:59,15.08842491,9.68e-05,53.2155,220.7724,69.3199,290.7897,0.00013341,1.836e-05,0.0,0 STARLINK-4777,1 53847U 22114AF  23138.50554979  .00001836  00000-0  13341-3 0  9991,2 53847  53.2155 220.7724 0000968  69.3199 290.7897 15.08842491 37514,6917.873,95.437,540.407,539.068,0.0
53847.0,STARLINK-4777,PAYLOAD,2023-05-18 15:18:45,15.08846844,9.77e-05,53.2155,220.1779,67.8707,292.2389,0.00022804,3.344e-05,0.0,0 STARLINK-4777,1 53847U 22114AF  23138.63802833  .00003344  00000-0  22804-3 0  9990,2 53847  53.2155 220.1779 0000977  67.8707 292.2389 15.08846844 38077,6917.859,95.437,540.4,539.049,0.0
53847.0,STARLINK-4777,PAYLOAD,2023-05-19 08:48:00,15.08837783,9.57e-05,53.2147,216.9085,72.1221,287.9875,2.4475e-05,1.02e-06,0.0,0 STARLINK-4777,1 53847U 22114AF  23139.36667126  .00000102  00000-0  24475-4 0  9991,2 53847  53.2147 216.9085 0000957  72.1221 287.9875 15.08837783 37644,6917.887,95.438,540.414,539.09,0.0
53847.0,STARLINK-4777,PAYLOAD,2023-05-19 11:58:48,15.08802143,0.0001065,53.2154,216.3109,112.0452,248.0653,0.0012446,0.00019555,0.0,0 STARLINK-4777,1 53847U 22114AF  23139.49917076  .00019555  00000-0  12446-2 0  9992,2 53847  53.2154 216.3109 0001065 112.0452 248.0653 15.08802143 37660,6917.996,95.44,540.598,539.124,0.0
53847.0,STARLINK-4777,PAYLOAD,2023-05-19 21:31:05,15.08840643,9.35e-05,53.2153,214.5268,95.508,264.6019,7.0292e-05,8.31e-06,0.0,0 STARLINK-4777,1 53847U 22114AF  23139.89658992  .00000831  00000-0  70292-4 0  9997,2 53847  53.2153 214.5268 0000935  95.5080 264.6019 15.08840643 38266,6917.878,95.438,540.39,539.097,0.0
53847.0,STARLINK-4777,PAYLOAD,2023-05-20 11:49:33,15.08851335,9.48e-05,53.215,211.8527,74.6191,285.4905,0.00023211,3.409e-05,0.0,0 STARLINK-4777,1 53847U 22114AF  23140.49274518  .00003409  00000-0  23211-3 0  9995,2 53847  53.2150 211.8527 0000948  74.6191 285.4905 15.08851335 37811,6917.846,95.437,540.367,539.055,0.0
53847.0,STARLINK-4777,PAYLOAD,2023-05-20 21:21:51,15.08849978,0.0001012,53.2149,210.0688,74.0838,286.0266,0.00018205,2.611e-05,0.0,0 STARLINK-4777,1 53847U 22114AF  23140.89018411  .00002611  00000-0  18205-3 0  9998,2 53847  53.2149 210.0688 0001012  74.0838 286.0266 15.08849978 38417,6917.85,95.437,540.415,539.015,0.0
53847.0,STARLINK-4777,PAYLOAD,2023-05-21 08:29:33,15.08844798,9.39e-05,53.2148,207.986,87.4337,272.6762,0.00011499,1.543e-05,0.0,0 STARLINK-4777,1 53847U 22114AF  23141.35386468  .00001543  00000-0  11499-3 0  9991,2 53847  53.2148 207.9860 0000939  87.4337 272.6762 15.08844798 37946,6917.866,95.437,540.38,539.081,0.0
53847.0,STARLINK-4777,PAYLOAD,2023-05-21 10:04:56,15.08845382,9.43e-05,53.2148,207.6886,86.7663,273.3437,0.00011605,1.56e-05,0.0,0 STARLINK-4777,1 53847U 22114AF  23141.42010406  .00001560  00000-0  11605-3 0  9993,2 53847  53.2148 207.6886 0000943  86.7663 273.3437 15.08845382 38498,6917.864,95.437,540.381,539.077,0.0
53847.0,STARLINK-4777,PAYLOAD,2023-05-21 21:12:39,15.08840402,9.52e-05,53.2144,205.6079,93.0251,267.085,-1.3185e-06,-3.09e-06,0.0,0 STARLINK-4777,1 53847U 22114AF  23141.88378563 -.00000309  00000-0 -13185-5 0  9993,2 53847  53.2144 205.6079 0000952  93.0251 267.0850 15.08840402 38565,6917.879,95.438,540.403,539.086,0.0
53847.0,STARLINK-4777,PAYLOAD,2023-05-22 13:06:30,15.0883347,0.000116,53.2156,202.6329,86.5545,273.5579,-0.00011145,-2.061e-05,0.0,0 STARLINK-4777,1 53847U 22114AF  23142.54619186 -.00002061  00000-0 -11145-3 0  9995,2 53847  53.2156 202.6329 0001160  86.5545 273.5579 15.08833470 38666,6917.9,95.438,540.568,538.963,0.0
53847.0,STARLINK-4777,PAYLOAD,2023-05-23 20:54:14,15.08833867,0.000103,53.2154,196.6854,102.2254,257.8853,0.00019425,2.805e-05,0.0,0 STARLINK-4777,1 53847U 22114AF  23143.87099941  .00002805  00000-0  19425-3 0  9996,2 53847  53.2154 196.6854 0001030 102.2254 257.8853 15.08833867 38860,6917.899,95.438,540.477,539.052,0.0
53847.0,STARLINK-4777,PAYLOAD,2023-05-24 03:15:46,15.08835734,0.0001009,53.2153,195.4958,89.3043,270.8065,0.00025189,3.723e-05,0.0,0 STARLINK-4777,1 53847U 22114AF  23144.13596032  .00003723  00000-0  25189-3 0  9993,2 53847  53.2153 195.4958 0001009  89.3043 270.8065 15.08835734 38368,6917.893,95.438,540.456,539.06,0.0
53847.0,STARLINK-4777,PAYLOAD,2023-05-24 08:01:56,15.08839698,0.0001003,53.2151,194.6041,87.771,272.3397,0.00028628,4.271e-05,0.0,0 STARLINK-4777,1 53847U 22114AF  23144.33467917  .00004271  00000-0  28628-3 0  9994,2 53847  53.2151 194.6041 0001003  87.7710 272.3397 15.08839698 38938,6917.881,95.438,540.44,539.052,0.0
53847.0,STARLINK-4777,PAYLOAD,2023-05-26 02:57:20,15.0884278,9.65e-05,53.2148,186.5765,77.4389,282.6711,7.8848e-05,9.67e-06,0.0,0 STARLINK-4777,1 53847U 22114AF  23146.12315667  .00000967  00000-0  78848-4 0  9995,2 53847  53.2148 186.5765 0000965  77.4389 282.6711 15.08842780 38661,6917.872,95.437,540.404,539.069,0.0
53847.0,STARLINK-4777,PAYLOAD,2023-05-26 09:18:53,15.08842004,9.37e-05,53.2157,185.3866,80.896,279.2138,5.5257e-05,5.92e-06,0.0,0 STARLINK-4777,1 53847U 22114AF  23146.38811686  .00000592  00000-0  55257-4 0  9998,2 53847  53.2157 185.3866 0000937  80.8960 279.2138 15.08842004 39241,6917.874,95.437,540.387,539.091,0.0
53847.0,STARLINK-4777,PAYLOAD,2023-05-27 09:09:40,15.08838127,9.65e-05,53.2158,180.9265,92.3842,267.7261,7.1581e-06,-1.74e-06,0.0,0 STARLINK-4777,1 53847U 22114AF  23147.38171843 -.00000174  00000-0  71581-5 0  9999,2 53847  53.2158 180.9265 0000965  92.3842 267.7261 15.08838127 38850,6917.886,95.438,540.419,539.084,0.0
53847.0,STARLINK-4777,PAYLOAD,2023-05-27 18:41:59,15.08837386,9.48e-05,53.2157,179.1422,90.7104,269.3997,1.3822e-05,-6.8e-07,0.0,0 STARLINK-4777,1 53847U 22114AF  23147.77915907 -.00000068  00000-0  13822-4 0  9994,2 53847  53.2157 179.1422 0000948  90.7104 269.3997 15.08837386 39455,6917.888,95.438,540.409,539.098,0.0
53847.0,STARLINK-4777,PAYLOAD,2023-05-28 05:49:41,15.08837684,9.31e-05,53.2152,177.0596,90.0755,270.0343,6.5991e-05,7.63e-06,0.0,0 STARLINK-4777,1 53847U 22114AF  23148.24283824  .00000763  00000-0  65991-4 0  9998,2 53847  53.2152 177.0596 0000931  90.0755 270.0343 15.08837684 39529,6917.887,95.438,540.397,539.108,0.0
